{
  "norad_id": 66326,
  "name": "STARLINK-35479",
  "history": [
    {
      "epoch": "2026-03-28T03:03:12.168288Z",
      "apogee_km": 483.82768095421306,
      "perigee_km": 482.2928311280366,
      "latitude_deg": -1.7962253223679718e-05,
      "longitude_deg": -122.92355384560209,
      "height_km": 483.08329620260764,
      "semi_major_axis_km": 6861.197256041125,
      "eccentricity": 0.00011185,
      "inclination_deg": 42.9988,
      "raan_deg": 108.4293,
      "arg_perigee_deg": 251.241,
      "mean_anomaly_deg": 108.832,
      "mean_motion_rev_day": 15.27576273
    },
    {
      "epoch": "2026-03-29T02:35:32.394912Z",
      "apogee_km": 483.91172200745496,
      "perigee_km": 482.0180578858308,
      "latitude_deg": -3.0458422754458592e-05,
      "longitude_deg": -122.51355545987249,
      "height_km": 482.7386925521124,
      "semi_major_axis_km": 6861.101889946643,
      "eccentricity": 0.000138,
      "inclination_deg": 42.9984,
      "raan_deg": 102.8903,
      "arg_perigee_deg": 270.1637,
      "mean_anomaly_deg": 89.9056,
      "mean_motion_rev_day": 15.27608122
    },
    {
      "epoch": "2026-03-30T00:33:42.160032Z",
      "apogee_km": 483.91818846257684,
      "perigee_km": 481.87085665624545,
      "latitude_deg": -3.5480849751426016e-05,
      "longitude_deg": -98.12849868076447,
      "height_km": 482.9366621378861,
      "semi_major_axis_km": 6861.03152255941,
      "eccentricity": 0.0001492,
      "inclination_deg": 42.9976,
      "raan_deg": 97.7183,
      "arg_perigee_deg": 254.9556,
      "mean_anomaly_deg": 105.113,
      "mean_motion_rev_day": 15.27631623
    },
    {
      "epoch": "2026-03-30T06:50:19.913280Z",
      "apogee_km": 483.5014942941807,
      "perigee_km": 482.6255934327519,
      "latitude_deg": -1.9443652965163696e-05,
      "longitude_deg": 165.98091998610005,
      "height_km": 483.2427504313866,
      "semi_major_axis_km": 6861.200543863466,
      "eccentricity": 6.383e-05,
      "inclination_deg": 43.0,
      "raan_deg": 96.2428,
      "arg_perigee_deg": 202.8426,
      "mean_anomaly_deg": 157.2397,
      "mean_motion_rev_day": 15.27575175
    },
    {
      "epoch": "2026-03-30T09:58:38.925984Z",
      "apogee_km": 484.2602444729482,
      "perigee_km": 481.91837070964084,
      "latitude_deg": -7.269962647606081e-06,
      "longitude_deg": 118.03911519773561,
      "height_km": 482.74598831799244,
      "semi_major_axis_km": 6861.226307591294,
      "eccentricity": 0.00017066,
      "inclination_deg": 43.0037,
      "raan_deg": 95.5091,
      "arg_perigee_deg": 275.9162,
      "mean_anomaly_deg": 84.1495,
      "mean_motion_rev_day": 15.27566571
    },
    {
      "epoch": "2026-03-31T06:22:41.409120Z",
      "apogee_km": 484.30730336982833,
      "perigee_km": 481.730253259494,
      "latitude_deg": 5.357018766009107e-05,
      "longitude_deg": 166.3908081614582,
      "height_km": 482.58939625925996,
      "semi_major_axis_km": 6861.155778314661,
      "eccentricity": 0.0001878,
      "inclination_deg": 43.0043,
      "raan_deg": 90.7089,
      "arg_perigee_deg": 279.2422,
      "mean_anomaly_deg": 80.8218,
      "mean_motion_rev_day": 15.27590125
    },
    {
      "epoch": "2026-04-01T09:03:21.229920Z",
      "apogee_km": 484.42860477568775,
      "perigee_km": 481.62513321881397,
      "latitude_deg": -5.065639257035737e-05,
      "longitude_deg": 118.8516631643804,
      "height_km": 482.6622090564185,
      "semi_major_axis_km": 6861.163868997251,
      "eccentricity": 0.0002043,
      "inclination_deg": 43.0042,
      "raan_deg": 84.4314,
      "arg_perigee_deg": 275.8286,
      "mean_anomaly_deg": 84.2332,
      "mean_motion_rev_day": 15.27587423
    },
    {
      "epoch": "2026-04-02T05:27:23.531616Z",
      "apogee_km": 484.2408165855477,
      "perigee_km": 481.7439143868596,
      "latitude_deg": -1.0185629655375355e-05,
      "longitude_deg": 167.20409235652693,
      "height_km": 482.4713004623972,
      "semi_major_axis_km": 6861.129365486204,
      "eccentricity": 0.00018196,
      "inclination_deg": 43.004,
      "raan_deg": 79.6312,
      "arg_perigee_deg": 283.8355,
      "mean_anomaly_deg": 76.2294,
      "mean_motion_rev_day": 15.27598946
    },
    {
      "epoch": "2026-04-03T15:58:49.694016Z",
      "apogee_km": 484.5655769879959,
      "perigee_km": 481.45336094967115,
      "latitude_deg": 1.703548542950432e-05,
      "longitude_deg": -0.19593571710189922,
      "height_km": 482.4276652928419,
      "semi_major_axis_km": 6861.146468968833,
      "eccentricity": 0.0002268,
      "inclination_deg": 43.0046,
      "raan_deg": 71.508,
      "arg_perigee_deg": 283.3646,
      "mean_anomaly_deg": 76.6953,
      "mean_motion_rev_day": 15.27593234
    },
    {
      "epoch": "2026-04-04T06:06:15.004512Z",
      "apogee_km": 483.9341079137721,
      "perigee_km": 482.2252532873017,
      "latitude_deg": 2.454042398337165e-05,
      "longitude_deg": 144.04307197994564,
      "height_km": 482.77092274718666,
      "semi_major_axis_km": 6861.216680600537,
      "eccentricity": 0.00012453,
      "inclination_deg": 43.0031,
      "raan_deg": 68.1825,
      "arg_perigee_deg": 275.7552,
      "mean_anomaly_deg": 84.3158,
      "mean_motion_rev_day": 15.27569786
    },
    {
      "epoch": "2026-04-05T07:12:44.883072Z",
      "apogee_km": 483.83687769215976,
      "perigee_km": 482.13531916374995,
      "latitude_deg": 2.239649732513508e-05,
      "longitude_deg": 120.47891322209084,
      "height_km": 482.6566218104821,
      "semi_major_axis_km": 6861.123098427955,
      "eccentricity": 0.000124,
      "inclination_deg": 43.0042,
      "raan_deg": 62.274,
      "arg_perigee_deg": 277.1921,
      "mean_anomaly_deg": 82.879,
      "mean_motion_rev_day": 15.27601039
    },
    {
      "epoch": "2026-04-05T15:03:31.962528Z",
      "apogee_km": 483.63740180933837,
      "perigee_km": 482.3694630574255,
      "latitude_deg": 3.980400579011244e-05,
      "longitude_deg": 0.614126150842861,
      "height_km": 482.54290533380953,
      "semi_major_axis_km": 6861.140432433382,
      "eccentricity": 9.24e-05,
      "inclination_deg": 43.0037,
      "raan_deg": 60.4276,
      "arg_perigee_deg": 291.9717,
      "mean_anomaly_deg": 68.1037,
      "mean_motion_rev_day": 15.2759525
    },
    {
      "epoch": "2026-04-06T05:10:56.237952Z",
      "apogee_km": 484.0188103673272,
      "perigee_km": 481.98997085812334,
      "latitude_deg": -6.570757437147213e-06,
      "longitude_deg": 144.8603000667726,
      "height_km": 482.8812586038821,
      "semi_major_axis_km": 6861.1413906127245,
      "eccentricity": 0.00014785,
      "inclination_deg": 43.0051,
      "raan_deg": 57.105,
      "arg_perigee_deg": 264.368,
      "mean_anomaly_deg": 95.7003,
      "mean_motion_rev_day": 15.2759493
    },
    {
      "epoch": "2026-04-07T06:17:25.071072Z",
      "apogee_km": 484.05269692811817,
      "perigee_km": 481.8081673283723,
      "latitude_deg": 2.1769449538126854e-05,
      "longitude_deg": 121.29974027295803,
      "height_km": 482.949047895718,
      "semi_major_axis_km": 6861.067432128245,
      "eccentricity": 0.00016357,
      "inclination_deg": 43.0052,
      "raan_deg": 51.1957,
      "arg_perigee_deg": 257.5883,
      "mean_anomaly_deg": 102.4786,
      "mean_motion_rev_day": 15.2761963
    },
    {
      "epoch": "2026-04-08T13:40:34.028256Z",
      "apogee_km": 484.24112405701726,
      "perigee_km": 481.9094096802446,
      "latitude_deg": -4.1418484729006704e-07,
      "longitude_deg": 1.838121211420032,
      "height_km": 482.87739623812485,
      "semi_major_axis_km": 6861.212266868631,
      "eccentricity": 0.00016992,
      "inclination_deg": 43.005,
      "raan_deg": 43.8104,
      "arg_perigee_deg": 268.7894,
      "mean_anomaly_deg": 91.2763,
      "mean_motion_rev_day": 15.2757126
    },
    {
      "epoch": "2026-04-09T13:12:54.985824Z",
      "apogee_km": 483.87506289685007,
      "perigee_km": 482.17349489968365,
      "latitude_deg": 4.496764723696228e-05,
      "longitude_deg": 2.243824727702559,
      "height_km": 482.66791499184575,
      "semi_major_axis_km": 6861.161278898267,
      "eccentricity": 0.000124,
      "inclination_deg": 43.0064,
      "raan_deg": 38.2701,
      "arg_perigee_deg": 279.0377,
      "mean_anomaly_deg": 81.0335,
      "mean_motion_rev_day": 15.27588288
    },
    {
      "epoch": "2026-04-10T12:45:15.498432Z",
      "apogee_km": 484.1269041061869,
      "perigee_km": 481.90526273777505,
      "latitude_deg": -1.1395969531948486e-05,
      "longitude_deg": 2.654179193293578,
      "height_km": 482.79991561756987,
      "semi_major_axis_km": 6861.153083421981,
      "eccentricity": 0.0001619,
      "inclination_deg": 43.0054,
      "raan_deg": 32.7327,
      "arg_perigee_deg": 269.6724,
      "mean_anomaly_deg": 90.3942,
      "mean_motion_rev_day": 15.27591025
    },
    {
      "epoch": "2026-04-11T20:08:23.563104Z",
      "apogee_km": 483.5229805870031,
      "perigee_km": 482.58162541463025,
      "latitude_deg": -5.070698020502242e-05,
      "longitude_deg": -116.80222765242087,
      "height_km": 482.9504387839836,
      "semi_major_axis_km": 6861.189303000816,
      "eccentricity": 6.86e-05,
      "inclination_deg": 43.0035,
      "raan_deg": 25.3489,
      "arg_perigee_deg": 255.0148,
      "mean_anomaly_deg": 105.0627,
      "mean_motion_rev_day": 15.27578929
    },
    {
      "epoch": "2026-04-13T03:31:31.420416Z",
      "apogee_km": 483.9500983810485,
      "perigee_km": 482.12214463801683,
      "latitude_deg": 6.559079050044686e-06,
      "longitude_deg": 123.73903659915564,
      "height_km": 483.01679421862895,
      "semi_major_axis_km": 6861.173121509532,
      "eccentricity": 0.00013321,
      "inclination_deg": 43.0052,
      "raan_deg": 17.9618,
      "arg_perigee_deg": 257.1347,
      "mean_anomaly_deg": 102.9356,
      "mean_motion_rev_day": 15.27584333
    },
    {
      "epoch": "2026-04-14T18:45:26.300160Z",
      "apogee_km": 483.56910182026786,
      "perigee_km": 482.47268878859813,
      "latitude_deg": 2.3173152927697273e-05,
      "longitude_deg": -115.58270694024142,
      "height_km": 482.85553889521617,
      "semi_major_axis_km": 6861.157895304433,
      "eccentricity": 7.99e-05,
      "inclination_deg": 43.0063,
      "raan_deg": 8.7299,
      "arg_perigee_deg": 263.9501,
      "mean_anomaly_deg": 96.126,
      "mean_motion_rev_day": 15.27589418
    },
    {
      "epoch": "2026-04-15T10:27:00.561024Z",
      "apogee_km": 483.3424911478696,
      "perigee_km": 482.75352702668897,
      "latitude_deg": -2.6457253001836764e-05,
      "longitude_deg": 4.6892052828842585,
      "height_km": 482.59388484874466,
      "semi_major_axis_km": 6861.185009087279,
      "eccentricity": 4.292e-05,
      "inclination_deg": 43.0031,
      "raan_deg": 5.0391,
      "arg_perigee_deg": 38.7585,
      "mean_anomaly_deg": 321.3297,
      "mean_motion_rev_day": 15.27580363
    },
    {
      "epoch": "2026-04-16T09:59:20.880096Z",
      "apogee_km": 483.99552426517494,
      "perigee_km": 482.05930366755365,
      "latitude_deg": 4.471352829546717e-06,
      "longitude_deg": 5.099365924292188,
      "height_km": 482.80436457526383,
      "semi_major_axis_km": 6861.164413966364,
      "eccentricity": 0.0001411,
      "inclination_deg": 43.0016,
      "raan_deg": 359.5006,
      "arg_perigee_deg": 269.9963,
      "mean_anomaly_deg": 90.0727,
      "mean_motion_rev_day": 15.27587241
    }
  ]
}